NORAD_CAT_ID,OBJECT_NAME,OBJECT_TYPE,EPOCH,MEAN_MOTION,ECCENTRICITY,INCLINATION,RA_OF_ASC_NODE,ARG_OF_PERICENTER,MEAN_ANOMALY,BSTAR,MEAN_MOTION_DOT,MEAN_MOTION_DDOT,TLE_LINE0,TLE_LINE1,TLE_LINE2,SEMIMAJOR_AXIS,PERIOD,APOGEE,PERIGEE,DECAYED
51104.0,STARLINK-3366,PAYLOAD,2022-02-15 06:00:00,15.73171427,0.0002184,53.2172,139.8519,17.4044,208.3227,0.00045785,0.00064052,0.0,0 STARLINK-3366,1 51104U 22005A   22046.25001157  .00064052  00000-0  45785-3 0  9994,2 51104  53.2172 139.8519 0002184  17.4044 208.3227 15.73171427  5607,6727.977,91.535,351.311,348.372,0.0
51104.0,STARLINK-3366,PAYLOAD,2022-02-15 14:00:01,15.73198607,0.0002531,53.2174,138.2047,16.8269,297.8218,0.00028057,0.00038939,0.0,0 STARLINK-3366,1 51104U 22005A   22046.58334491  .00038939  00000-0  28057-3 0  9998,2 51104  53.2174 138.2047 0002531  16.8269 297.8218 15.73198607  3684,6727.899,91.533,351.467,348.061,0.0
51104.0,STARLINK-3366,PAYLOAD,2022-02-15 22:00:01,15.73269342,0.0002478,53.2173,136.5542,13.6691,29.98,-0.00049632,-0.00069919,0.0,0 STARLINK-3366,1 51104U 22005A   22046.91668981 -.00069919  00000-0 -49632-3 0  9995,2 51104  53.2173 136.5542 0002478  13.6691  29.9800 15.73269342  5709,6727.696999999999,91.529,351.23,347.895,0.0
51104.0,STARLINK-3366,PAYLOAD,2022-02-16 14:00:01,15.73232043,0.0002725,53.2171,133.2566,16.3335,205.1936,-0.00039283,-0.00055478,0.0,0 STARLINK-3366,1 51104U 22005A   22047.58334491 -.00055478  00000-0 -39283-3 0  9991,2 51104  53.2171 133.2566 0002725  16.3335 205.1936 15.73232043  5815,6727.804,91.531,351.50199999999984,347.835,0.0
51104.0,STARLINK-3366,PAYLOAD,2022-02-16 20:00:01,15.73206211,0.0002722,53.2164,132.0188,18.2844,179.9632,6.858e-05,9.017e-05,0.0,0 STARLINK-3366,1 51104U 22005A   22047.83334491  .00009017  00000-0  68580-4 0  9998,2 51104  53.2164 132.0188 0002722  18.2844 179.9632 15.73206211  5850,6727.877,91.533,351.574,347.911,0.0
51104.0,STARLINK-3366,PAYLOAD,2022-02-16 22:00:00,15.73211052,0.0002648999999999,53.2166,131.6058,19.9419,290.5378,7.804100000000001e-05,0.0001035,0.0,0 STARLINK-3366,1 51104U 22005A   22047.91667824  .00010350  00000-0  78041-4 0  9991,2 51104  53.2166 131.6058 0002649  19.9419 290.5378 15.73211052  3716,6727.864000000001,91.533,351.511,347.946,0.0
51104.0,STARLINK-3366,PAYLOAD,2022-02-17 06:00:00,15.73255716,0.0002535,53.2169,129.9556,20.4792,18.9861,-0.00033789,-0.00047894,0.0,0 STARLINK-3366,1 51104U 22005A   22048.25001157 -.00047894  00000-0 -33789-3 0  9994,2 51104  53.2169 129.9556 0002535  20.4792  18.9861 15.73255716  5915,6727.736,91.53,351.307,347.896,0.0
51104.0,STARLINK-3366,PAYLOAD,2022-02-17 14:00:01,15.73189993,0.0002792,53.217,128.308,15.696,112.7504,0.00039032,0.00054498,0.0,0 STARLINK-3366,1 51104U 22005A   22048.58334491  .00054498  00000-0  39032-3 0  9993,2 51104  53.2170 128.3080 0002792  15.6960 112.7504 15.73189993  3716,6727.924,91.534,351.667,347.91,0.0
51104.0,STARLINK-3366,PAYLOAD,2022-02-17 22:00:00,15.73215036,0.0002686,53.2168,126.6571,12.9607,204.4067,-0.00050986,-0.00071632,0.0,0 STARLINK-3366,1 51104U 22005A   22048.91667824 -.00071632  00000-0 -50986-3 0  9991,2 51104  53.2168 126.6571 0002686  12.9607 204.4067 15.73215036  3675,6727.852,91.532,351.524,347.91,0.0
51104.0,STARLINK-3366,PAYLOAD,2022-02-18 06:00:00,15.73211307,0.0002568,53.2167,125.0072,11.7232,294.5484,-0.00028494,-0.00040446,0.0,0 STARLINK-3366,1 51104U 22005A   22049.25001157 -.00040446  00000-0 -28494-3 0  9998,2 51104  53.2167 125.0072 0002568  11.7232 294.5484 15.73211307  6070,6727.863,91.533,351.456,348.0,0.0
51104.0,STARLINK-3366,PAYLOAD,2022-02-18 14:00:01,15.73136976,0.0002843,53.2163,123.3598,9.6305,25.5789,0.00024346,0.00033596,0.0,0 STARLINK-3366,1 51104U 22005A   22049.58334491  .00033596  00000-0  24346-3 0  9992,2 51104  53.2163 123.3598 0002843   9.6305  25.5789 15.73136976  3719,6728.075,91.537,351.853,348.027,0.0
51104.0,STARLINK-3366,PAYLOAD,2022-02-18 20:00:01,15.73172208,0.00028,53.2156,122.1217,8.8884,2.9663,-1.5362e-06,-8.38e-06,0.0,0 STARLINK-3366,1 51104U 22005A   22049.83334491 -.00000838  00000-0 -15362-5 0  9995,2 51104  53.2156 122.1217 0002800   8.8884   2.9663 15.73172208  3675,6727.974,91.535,351.723,347.956,0.0
51104.0,STARLINK-3366,PAYLOAD,2022-02-19 06:00:00,15.73201119,0.0002639,53.2161,120.0589,12.2249,200.7505,0.00022958,0.00031726,0.0,0 STARLINK-3366,1 51104U 22005A   22050.25001157  .00031726  00000-0  22958-3 0  9998,2 51104  53.2161 120.0589 0002639  12.2249 200.7505 15.73201119  6236,6727.892,91.533,351.532,347.981,0.0
51104.0,STARLINK-3366,PAYLOAD,2022-02-19 14:00:01,15.73205447,0.0003008,53.2161,118.4113,12.6598,289.2613,0.00039735,0.00055536,0.0,0 STARLINK-3366,1 51104U 22005A   22050.58334491  .00055536  00000-0  39735-3 0  9990,2 51104  53.2161 118.4113 0003008  12.6598 289.2613 15.73205447  3699,6727.88,91.533,351.76800000000014,347.721,0.0
51104.0,STARLINK-3366,PAYLOAD,2022-02-19 20:00:01,15.73289265,0.0002956,53.2158,117.1728,14.1144,264.5294,-0.0007672,-0.0010737,0.0,0 STARLINK-3366,1 51104U 22005A   22050.83334491 -.00107370  00000-0 -76720-3 0  9999,2 51104  53.2158 117.1728 0002956  14.1144 264.5294 15.73289265  3701,6727.641,91.528,351.494,347.517,0.0
51104.0,STARLINK-3366,PAYLOAD,2022-02-20 06:00:00,15.72881146,0.0002838,53.217,115.0913,15.6481,104.1625,0.0035658,0.00525202,0.0,0 STARLINK-3366,1 51104U 22005A   22051.25001157  .00525202  00000-0  35658-2 0  9996,2 51104  53.2170 115.0913 0002838  15.6481 104.1625 15.72881146  6386,6728.804,91.552,352.579,348.76,0.0
51104.0,STARLINK-3366,PAYLOAD,2022-02-20 14:00:01,15.73180757,0.000316,53.2155,113.4623,13.4189,195.4165,0.00051802,0.00072664,0.0,0 STARLINK-3366,1 51104U 22005A   22051.58334491  .00072664  00000-0  51802-3 0  9991,2 51104  53.2155 113.4623 0003160  13.4189 195.4165 15.73180757  6449,6727.95,91.534,351.941,347.689,0.0
51104.0,STARLINK-3366,PAYLOAD,2022-02-20 22:00:00,15.73208797,0.0002927,53.2152,111.8108,13.9783,283.8016,-0.00013484,-0.00019514,0.0,0 STARLINK-3366,1 51104U 22005A   22051.91667824 -.00019514  00000-0 -13484-3 0  9998,2 51104  53.2152 111.8108 0002927  13.9783 283.8016 15.73208797  6498,6727.87,91.533,351.704,347.766,0.0
51104.0,STARLINK-3366,PAYLOAD,2022-02-21 20:00:01,15.73220713,0.0003054,53.2156,107.2748,10.0077,82.3951,-0.00028666,-0.00040706,0.0,0 STARLINK-3366,1 51104U 22005A   22052.83335648 -.00040706  00000-0 -28666-3 0  9991,2 51104  53.2156 107.2748 0003054  10.0077  82.3951 15.73220713  6635,6727.8359999999975,91.532,351.756,347.646,0.0
51104.0,STARLINK-3366,PAYLOAD,2022-02-21 22:00:00,15.73179661,0.0003029,53.2157,106.8619,10.3148,194.2698,0.00030191,0.00041932,0.0,0 STARLINK-3366,1 51104U 22005A   22052.91667824  .00041932  00000-0  30191-3 0  9990,2 51104  53.2157 106.8619 0003029  10.3148 194.2698 15.73179661  3691,6727.953,91.534,351.856,347.78,0.0
51104.0,STARLINK-3366,PAYLOAD,2022-02-22 14:00:01,15.73146593,0.00034,53.2153,103.5647,17.3482,5.0974,0.00061109,0.00085844,0.0,0 STARLINK-3366,1 51104U 22005A   22053.58334491  .00085844  00000-0  61109-3 0  9998,2 51104  53.2153 103.5647 0003400  17.3482   5.0974 15.73146593  6757,6728.047,91.536,352.2,347.625,0.0
51104.0,STARLINK-3366,PAYLOAD,2022-02-22 22:00:00,15.73197062,0.0003109,53.2152,101.9132,17.8395,93.5201,0.0003346,0.00046601,0.0,0 STARLINK-3366,1 51104U 22005A   22053.91667824  .00046601  00000-0  33460-3 0  9991,2 51104  53.2152 101.9132 0003109  17.8395  93.5201 15.73197062  3682,6727.904,91.533,351.86,347.677,0.0
51104.0,STARLINK-3366,PAYLOAD,2022-02-23 06:00:00,15.73236996,0.0003127,53.2156,100.2641,17.114,183.1898,-0.00042256,-0.00059619,0.0,0 STARLINK-3366,1 51104U 22005A   22054.25001157 -.00059619  00000-0 -42256-3 0  9998,2 51104  53.2156 100.2641 0003127  17.1140 183.1898 15.73236996  6865,6727.79,91.531,351.7580000000001,347.551,0.0
51104.0,STARLINK-3366,PAYLOAD,2022-02-23 14:00:01,15.73195051,0.000333,53.2157,98.6162,12.4778,276.7559,-0.00010914,-0.00015913,0.0,0 STARLINK-3366,1 51104U 22005A   22054.58334491 -.00015913  00000-0 -10914-3 0  9999,2 51104  53.2157  98.6162 0003330  12.4778 276.7559 15.73195051  3715,6727.909000000002,91.533,352.015,347.534,0.0
51104.0,STARLINK-3366,PAYLOAD,2022-02-23 22:00:00,15.73137982,0.0003116,53.216,96.9645,12.3242,5.8466,0.00048467,0.00067781,0.0,0 STARLINK-3366,1 51104U 22005A   22054.91667824  .00067781  00000-0  48467-3 0  9997,2 51104  53.2160  96.9645 0003116  12.3242   5.8466 15.73137982  3710,6728.071999999999,91.537,352.033,347.841,0.0
51104.0,STARLINK-3366,PAYLOAD,2022-02-24 06:00:00,15.7345135,0.000339,53.2167,95.3042,12.7524,94.2963,-0.0054034,-0.00706545,0.0,0 STARLINK-3366,1 51104U 22005A   22055.25001157 -.00706545  00000-0 -54034-2 0  9992,2 51104  53.2167  95.3042 0003390  12.7524  94.2963 15.73451350  7011,6727.179,91.519,351.324,346.76300000000015,0.0
51104.0,STARLINK-3366,PAYLOAD,2022-02-24 14:00:01,15.73240082,0.0003434,53.2155,93.6676,13.4571,182.5856,-0.00017571,-0.0002526,0.0,0 STARLINK-3366,1 51104U 22005A   22055.58334491 -.00025260  00000-0 -17571-3 0  9992,2 51104  53.2155  93.6676 0003434  13.4571 182.5856 15.73240082  3680,6727.781,91.531,351.956,347.336,0.0
51104.0,STARLINK-3366,PAYLOAD,2022-02-24 22:00:00,15.73203958,0.0003115,53.2155,92.016,11.0009,274.0146,0.00011228,0.00015169,0.0,0 STARLINK-3366,1 51104U 22005A   22055.91667824  .00015169  00000-0  11228-3 0  9996,2 51104  53.2155  92.0160 0003115  11.0009 274.0146 15.73203958  3687,6727.884,91.533,351.845,347.653,0.0
51104.0,STARLINK-3366,PAYLOAD,2022-02-25 00:00:00,15.73217985,0.0003084,53.2156,91.6033,10.93,26.3163,-0.0001462,-0.00021111,0.0,0 STARLINK-3366,1 51104U 22005A   22056.00001157 -.00021111  00000-0 -14620-3 0  9993,2 51104  53.2156  91.6033 0003084  10.9300  26.3163 15.73217985  7135,6727.844,91.532,351.784,347.634,0.0
